[{"OBJECT_NAME":"STARLINK-1894","OBJECT_ID":"2020-074F","EPOCH":"2026-03-10T00:00:02.999808","MEAN_MOTION":15.80712393,"ECCENTRICITY":0.00023349,"INCLINATION":53.0425,"RA_OF_ASC_NODE":276.1954,"ARG_OF_PERICENTER":282.1358,"MEAN_ANOMALY":10.1034,"EPHEMERIS_TYPE":0,"CLASSIFICATION_TYPE":"U","NORAD_CAT_ID":46744,"ELEMENT_SET_NO":999,"REV_AT_EPOCH":597,"BSTAR":0.0014063958,"MEAN_MOTION_DOT":0.00284143,"MEAN_MOTION_DDOT":0},{"OBJECT_NAME":"JILIN-1 GAOFEN 3D03","OBJECT_ID":"2021-061D","EPOCH":"2026-03-09T16:24:01.846080","MEAN_MOTION":15.79996528,"ECCENTRICITY":0.00020696,"INCLINATION":97.3014,"RA_OF_ASC_NODE":145.6831,"ARG_OF_PERICENTER":139.5551,"MEAN_ANOMALY":220.5871,"EPHEMERIS_TYPE":0,"CLASSIFICATION_TYPE":"U","NORAD_CAT_ID":49006,"ELEMENT_SET_NO":999,"REV_AT_EPOCH":26054,"BSTAR":0.0011006252,"MEAN_MOTION_DOT":0.00207903,"MEAN_MOTION_DDOT":0}]
